[
    {
        "Altitude(m)": 622200.0782741611,
        "Argument of Periapsis(deg)": 0.0,
        "Eccentricity": 0.0,
        "Inclination(deg)": 60.0,
        "Latitude(deg)": -52.16245838982406,
        "Longitude(deg)": 72.36081417356765,
        "Mean Anomaly(deg)": -65.45449999999998,
        "RAAN(deg)": 220.00000000000003,
        "Satellite Name": "Test1 986",
        "Satellite Number": 986,
        "Semi-Major Axis(m)": 6980739.136638005,
        "Time(s)": 0
    },
    {
        "Altitude(m)": 622058.2457012603,
        "Argument of Periapsis(deg)": 0.00010418945913296404,
        "Eccentricity": 0.0,
        "Inclination(deg)": 60.0,
        "Latitude(deg)": -51.79920739937702,
        "Longitude(deg)": 73.12886989792602,
        "Mean Anomaly(deg)": -64.83439385453813,
        "RAAN(deg)": 219.99957995086027,
        "Satellite Name": "Test1 986",
        "Satellite Number": 986,
        "Semi-Major Axis(m)": 6980739.136638005,
        "Time(s)": 10
    }
]